{"type":"Feature","properties":{"MUN":"STAFFORD TWP","COUNTY":"OCEAN","MUN_LABEL":"Stafford Township","MUN_TYPE":"Township","NAME":"Stafford Township","GNIS_NAME":"Township of Stafford"},"geometry":{"type":"Polygon","coordinates":[[[-74.2084177,39.7135898],[-74.2084149,39.7135873],[-74.2083546,39.7136256],[-74.2082952,39.71367],[-74.2082345,39.713709],[-74.2081751,39.7137524],[-74.2081271,39.7137903],[-74.2080748,39.7138305],[-74.2080317,39.713863],[-74.2079695,39.713902],[-74.2079158,39.7139389],[-74.207855,39.7139823],[-74.207807,39.7140159],[-74.2077547,39.7140538],[-74.2077039,39.7140896],[-74.2076516,39.7141275],[-74.2076134,39.714159],[-74.2075794,39.7141905],[-74.2075604,39.7142046],[-74.207535,39.7142208],[-74.2075096,39.7142283],[-74.2074771,39.7142359],[-74.2074419,39.7142391],[-74.2074066,39.7142477],[-74.2073798,39.7142618],[-74.2073516,39.714278],[-74.2073219,39.7142997],[-74.2072965,39.7143192],[-74.2072781,39.7143333],[-74.2072498,39.7143485],[-74.2072216,39.7143549],[-74.2071948,39.7143592],[-74.2071596,39.7143624],[-74.2071385,39.7143689],[-74.2071144,39.714384],[-74.2070988,39.7144025],[-74.2070847,39.7144275],[-74.2070733,39.7144579],[-74.2070654,39.7144905],[-74.2070454,39.714546],[-74.2070367,39.7145762],[-74.2070268,39.7146101],[-74.2070083,39.7146667],[-74.2069841,39.7147167],[-74.2069671,39.7147536],[-74.2069472,39.7147764],[-74.206926,39.7147916],[-74.2069077,39.7147992],[-74.2068908,39.7148013],[-74.2068626,39.7147969],[-74.2068415,39.7147892],[-74.206812,39.7147837],[-74.2067838,39.7147814],[-74.2067556,39.7147857],[-74.2067218,39.7147932],[-74.2066907,39.7148084],[-74.2066498,39.7148213],[-74.2066089,39.7148299],[-74.2065553,39.7148418],[-74.2064968,39.7148558],[-74.2064347,39.7148741],[-74.2063599,39.7149055],[-74.2063063,39.7149315],[-74.2062569,39.7149574],[-74.2062201,39.7149824],[-74.2061876,39.7150095],[-74.2061593,39.7150366],[-74.2061183,39.7150757],[-74.20609,39.7151115],[-74.2060673,39.7151376],[-74.2060432,39.7151647],[-74.206015,39.7151973],[-74.2059824,39.7152255],[-74.2059527,39.7152461],[-74.2059347,39.7152589],[-74.2059054,39.7152797],[-74.2058418,39.7153296],[-74.2057301,39.7154164],[-74.2056722,39.7154586],[-74.2056185,39.7154966],[-74.2055761,39.7155226],[-74.2055443,39.7155464],[-74.2054722,39.7156137],[-74.2054014,39.7156788],[-74.2053519,39.7157244],[-74.2053024,39.71577],[-74.2052409,39.7158394],[-74.20519,39.7158828],[-74.2051561,39.7159088],[-74.2051179,39.7159305],[-74.2050883,39.7159446],[-74.2050586,39.7159543],[-74.2050318,39.7159618],[-74.2050253,39.715963],[-74.2049839,39.7159704],[-74.2049388,39.7159779],[-74.2048965,39.7159822],[-74.2048455,39.7159861],[-74.2046882,39.7159963],[-74.2045781,39.7160067],[-74.2044837,39.7160231],[-74.2043736,39.7160456],[-74.2043047,39.7160606],[-74.2042378,39.7160787],[-74.2041611,39.7161012],[-74.2040942,39.7161299],[-74.2040699,39.7161431],[-74.2040469,39.7161556],[-74.2039937,39.7161858],[-74.2039484,39.716213],[-74.2038893,39.7162493],[-74.2038558,39.7162704],[-74.2038253,39.7162901],[-74.203789,39.7163063],[-74.203778,39.7163112],[-74.203719,39.7163308],[-74.20366,39.7163397],[-74.2036147,39.7163457],[-74.2035283,39.71635],[-74.2034477,39.7163544],[-74.2033858,39.7163573],[-74.203313,39.7163631],[-74.203256,39.7163751],[-74.2031989,39.7163886],[-74.2031566,39.7164068],[-74.2031113,39.7164279],[-74.2030681,39.7164384],[-74.203017,39.7164428],[-74.20296,39.7164336],[-74.2029168,39.7164198],[-74.2028796,39.7164015],[-74.2028345,39.7163741],[-74.2027757,39.716339],[-74.202711,39.7163055],[-74.202656,39.7162901],[-74.2026108,39.7162885],[-74.202544,39.7162959],[-74.202485,39.7163125],[-74.2024387,39.7163305],[-74.2023777,39.7163531],[-74.2023069,39.7163742],[-74.2022321,39.7163862],[-74.2021496,39.7163905],[-74.2020572,39.7163857],[-74.2019748,39.7163673],[-74.2019238,39.716349],[-74.2018827,39.7163185],[-74.2018425,39.716285],[-74.2017837,39.7162439],[-74.2017308,39.7162134],[-74.201668,39.716192],[-74.2016209,39.7161858],[-74.2015718,39.7161872],[-74.2015556,39.716189],[-74.2015069,39.7161946],[-74.2014479,39.7162081],[-74.2013514,39.7162428],[-74.2012451,39.7162895],[-74.2011841,39.7163167],[-74.2011505,39.716347],[-74.2011229,39.7163742],[-74.201107,39.716403],[-74.2010941,39.716447],[-74.2010821,39.7165016],[-74.2010799,39.7165547],[-74.2010854,39.7166336],[-74.2010791,39.7167307],[-74.2010709,39.7168081],[-74.2010629,39.7168536],[-74.2010509,39.7168855],[-74.2010292,39.7169067],[-74.2010075,39.7169263],[-74.200993,39.7169329],[-74.200974,39.7169414],[-74.2009347,39.7169504],[-74.2008915,39.7169579],[-74.2008442,39.7169684],[-74.2007931,39.7169834],[-74.2007875,39.7169862],[-74.2007655,39.716997],[-74.200735,39.7170212],[-74.2006718,39.7170894],[-74.2006264,39.7171272],[-74.200587,39.7171544],[-74.2005505,39.7171756],[-74.2004817,39.7172072],[-74.200395,39.7172404],[-74.2003517,39.7172616],[-74.20033,39.7172797],[-74.2003082,39.717316],[-74.2002943,39.7173479],[-74.2002764,39.7174025],[-74.2002605,39.7174495],[-74.2002387,39.7174904],[-74.2002091,39.7175268],[-74.2001598,39.7175721],[-74.2001311,39.7175931],[-74.2001203,39.7176009],[-74.200073,39.7176372],[-74.2000168,39.7176886],[-74.1999694,39.7177264],[-74.1999044,39.7177688],[-74.1998591,39.7177945],[-74.1998,39.7178201],[-74.1997508,39.7178367],[-74.1997194,39.7178411],[-74.1996918,39.7178441],[-74.1996447,39.7178394],[-74.1996113,39.7178317],[-74.199577,39.717815],[-74.1995339,39.7177951],[-74.199475,39.7177631],[-74.19943,39.7177342],[-74.1993731,39.7177052],[-74.1993221,39.7176899],[-74.1992808,39.7176867],[-74.1992395,39.7176912],[-74.1991904,39.7177002],[-74.199151,39.7177213],[-74.1991115,39.71775],[-74.1990701,39.7177894],[-74.1990247,39.7178454],[-74.1989536,39.7179348],[-74.1988923,39.718015],[-74.1988419,39.7180771],[-74.1987707,39.7181756],[-74.1987212,39.718268],[-74.1986934,39.7183317],[-74.1986794,39.7183939],[-74.198681,39.7184728],[-74.1986925,39.7185457],[-74.1987118,39.7186231],[-74.1987254,39.7186626],[-74.1987436,39.7187023],[-74.1987628,39.7187485],[-74.1987773,39.7187796],[-74.1987794,39.7187807],[-74.1988031,39.7187989],[-74.1988329,39.7188126],[-74.1988957,39.7188263],[-74.1989968,39.7188344],[-74.199044,39.7188321],[-74.1990878,39.7188268],[-74.1991797,39.7187917],[-74.1992361,39.7187756],[-74.1992854,39.7187662],[-74.1993241,39.7187676],[-74.1994049,39.7187782],[-74.1994419,39.718787],[-74.1994756,39.7188044],[-74.1995192,39.7188462],[-74.1995561,39.7189009],[-74.1995895,39.7189817],[-74.1996328,39.7190833],[-74.1996393,39.719151],[-74.1996255,39.7192265],[-74.1995948,39.7193045],[-74.1995405,39.7193929],[-74.1994962,39.7194865],[-74.1994047,39.7196112],[-74.1993334,39.7197151],[-74.1993095,39.719788],[-74.199316,39.7198556],[-74.199336,39.7198895],[-74.199373,39.7199235],[-74.1994873,39.7199993],[-74.1995949,39.7200542],[-74.1997025,39.7201222],[-74.1997831,39.7201901],[-74.1998267,39.7202448],[-74.1998534,39.72031],[-74.1998628,39.720461],[-74.1998724,39.7205729],[-74.1998992,39.7206277],[-74.1999361,39.7206512],[-74.2000001,39.720667],[-74.2001754,39.7206727],[-74.2004181,39.7206681],[-74.2005698,39.720658],[-74.2007012,39.7206792],[-74.2007618,39.7207028],[-74.200792,39.7207341],[-74.2008153,39.7207941],[-74.2008319,39.7208618],[-74.2008616,39.7210076],[-74.2008879,39.7211613],[-74.2008941,39.7212732],[-74.2008769,39.7213591],[-74.200853,39.7214397],[-74.2008225,39.7214761],[-74.2008096,39.7214866],[-74.2007684,39.7215202],[-74.2006873,39.7215616],[-74.2006096,39.7215953],[-74.2005116,39.7216393],[-74.2004035,39.7216937],[-74.2003224,39.7217481],[-74.2002547,39.7218052],[-74.200231,39.721852],[-74.200224,39.7218989],[-74.2002371,39.7219822],[-74.2002638,39.722063],[-74.2003105,39.7221516],[-74.2003237,39.7222193],[-74.20031,39.7222713],[-74.2002828,39.7223259],[-74.2002287,39.722383],[-74.2001747,39.7224243],[-74.2001617,39.7224086],[-74.2000659,39.7223545],[-74.1999349,39.7223271],[-74.199472,39.7223124],[-74.1990003,39.7222842],[-74.1986159,39.7222765],[-74.198319,39.7222487],[-74.1982143,39.7222215],[-74.198164,39.7221899],[-74.1981161,39.7221366],[-74.1981093,39.72211],[-74.1981014,39.7220592],[-74.1981108,39.7219243],[-74.1981461,39.7218165],[-74.1982695,39.7215807],[-74.1983579,39.7213448],[-74.1984026,39.7211088],[-74.1983988,39.7210361],[-74.198377,39.7209535],[-74.1983459,39.7208975],[-74.1982989,39.7208454],[-74.1982519,39.7208049],[-74.1981856,39.7207709],[-74.1981106,39.7207462],[-74.1980068,39.7207362],[-74.1979412,39.7207432],[-74.1978903,39.7207505],[-74.1978241,39.7207819],[-74.1977578,39.7208304],[-74.1977222,39.7208709],[-74.1975643,39.7210121],[-74.1974414,39.7211467],[-74.1973128,39.7213219],[-74.1972832,39.7213622],[-74.1971337,39.7215845],[-74.1969668,39.7217864],[-74.1968528,39.7218941],[-74.1968076,39.7219164],[-74.1967445,39.7219333],[-74.1966973,39.7219429],[-74.1966429,39.7219475],[-74.1963808,39.7219333],[-74.1961538,39.7219192],[-74.1959354,39.7219186],[-74.1958557,39.7219236],[-74.1957802,39.721938],[-74.1956951,39.7219694],[-74.1955242,39.7220458],[-74.1954366,39.7220995],[-74.195279,39.7221666],[-74.1951128,39.7222201],[-74.1949985,39.7222421],[-74.1949293,39.7222516],[-74.19486,39.7222563],[-74.194794,39.7222513],[-74.1946515,39.7222377],[-74.194571,39.7222322],[-74.1943701,39.7222249],[-74.194341,39.7222283],[-74.1941429,39.7222513],[-74.1939854,39.7223048],[-74.1938016,39.7223718],[-74.1935916,39.7224387],[-74.1934168,39.7224585],[-74.1931723,39.7224309],[-74.1930327,39.7223833],[-74.1929021,39.7222817],[-74.1927803,39.72216],[-74.1926643,39.7220185],[-74.1925543,39.721903],[-74.1924705,39.7218383],[-74.1923693,39.721776],[-74.1922493,39.7217268],[-74.1921581,39.7217101],[-74.1920659,39.7217128],[-74.1919762,39.7217293],[-74.1919084,39.7217596],[-74.1918363,39.721804],[-74.1917823,39.7218592],[-74.1917726,39.7218692],[-74.1917088,39.7219604],[-74.19168,39.7220424],[-74.1915826,39.7223457],[-74.1915553,39.722575],[-74.1915893,39.722791],[-74.1916672,39.7229599],[-74.1917367,39.723041],[-74.191797,39.7232436],[-74.1918139,39.7233651],[-74.1918044,39.7235404],[-74.1917598,39.7237562],[-74.191698,39.723891],[-74.1916365,39.7239785],[-74.1915574,39.724066],[-74.1914085,39.7241533],[-74.1912163,39.7241663],[-74.1910678,39.7241389],[-74.190937,39.7240914],[-74.1908064,39.7239898],[-74.1906847,39.7238613],[-74.1905803,39.7237463],[-74.1904501,39.7235638],[-74.1903112,39.7233678],[-74.1901895,39.723219],[-74.1900502,39.7231107],[-74.1899013,39.723037],[-74.1898584,39.7230158],[-74.1896839,39.7229613],[-74.189387,39.7229336],[-74.1888291,39.7228329],[-74.1883817,39.7227524],[-74.187962,39.7227369],[-74.1879141,39.722745],[-74.1877728,39.7227688],[-74.1876259,39.7227936],[-74.1875015,39.7228387],[-74.187223,39.7229051],[-74.1870016,39.7230356],[-74.1867803,39.723153],[-74.1865594,39.7231918],[-74.1861176,39.723243],[-74.1855911,39.7232547],[-74.1852996,39.7232448],[-74.1847507,39.7232262],[-74.1841566,39.723159],[-74.1840123,39.7231383],[-74.1836914,39.7230924],[-74.1835966,39.7230788],[-74.1835795,39.7230742],[-74.1831499,39.7229585],[-74.1831047,39.7229463],[-74.1828336,39.7228276],[-74.1827511,39.7227948],[-74.1823791,39.722647],[-74.1820816,39.7225287],[-74.182003,39.7224975],[-74.1817038,39.7223847],[-74.1814775,39.7222993],[-74.1812232,39.7222162],[-74.180999,39.7221429],[-74.1809518,39.7221274],[-74.1806298,39.7219954],[-74.1804266,39.7218768],[-74.1802912,39.7217715],[-74.1801734,39.7215352],[-74.1799628,39.7211805],[-74.1799158,39.7211283],[-74.1797263,39.7209176],[-74.1790492,39.7204436],[-74.1787719,39.7202895],[-74.1781007,39.7199165],[-74.1771685,39.7195467],[-74.1766451,39.7194197],[-74.1764673,39.7193765],[-74.1761847,39.719308],[-74.1756547,39.7192245],[-74.1753363,39.7191745],[-74.1750376,39.7191577],[-74.1743576,39.7191196],[-74.1743517,39.7191192],[-74.1732239,39.7190553],[-74.1728917,39.7190364],[-74.1725059,39.7190284],[-74.1714316,39.7190061],[-74.1698284,39.718914],[-74.1682479,39.7188231],[-74.1680703,39.7188129],[-74.1658138,39.7185835],[-74.1657257,39.7185696],[-74.165638,39.718554],[-74.1655508,39.7185369],[-74.1654641,39.7185181],[-74.1653781,39.7184978],[-74.1652927,39.7184759],[-74.165208,39.7184525],[-74.1651241,39.7184275],[-74.165041,39.718401],[-74.1649587,39.7183729],[-74.1648773,39.7183434],[-74.1647968,39.7183124],[-74.1647174,39.7182799],[-74.1646389,39.7182459],[-74.1645616,39.7182105],[-74.1644853,39.7181738],[-74.1644102,39.7181356],[-74.1643363,39.7180961],[-74.1642637,39.7180552],[-74.1641924,39.718013],[-74.1641223,39.7179695],[-74.1640537,39.7179247],[-74.1639864,39.7178787],[-74.1639206,39.7178315],[-74.1638563,39.7177831],[-74.1600041,39.714315],[-74.159997,39.7143059],[-74.1599917,39.714296],[-74.1599885,39.7142857],[-74.1599873,39.7142751],[-74.1599882,39.7142645],[-74.1599912,39.7142541],[-74.1599962,39.7142442],[-74.160003,39.7142349],[-74.1600116,39.7142266],[-74.1600218,39.7142194],[-74.1600332,39.7142134],[-74.1600457,39.7142088],[-74.1600624,39.7142038],[-74.1600784,39.7141976],[-74.1600937,39.7141904],[-74.1601081,39.7141822],[-74.1601215,39.7141731],[-74.1601338,39.7141631],[-74.1601433,39.7141539],[-74.1601524,39.7141434],[-74.160161,39.714132],[-74.1601687,39.7141201],[-74.1601722,39.7141133],[-74.1601748,39.7141062],[-74.1601765,39.7140989],[-74.1601773,39.7140913],[-74.1601771,39.7140835],[-74.1601761,39.7140753],[-74.1601742,39.7140668],[-74.1601713,39.7140579],[-74.1601644,39.7140418],[-74.1601545,39.7140237],[-74.1601432,39.7140056],[-74.1601113,39.7139575],[-74.1601027,39.7139433],[-74.1600958,39.7139306],[-74.1600893,39.7139163],[-74.1600847,39.7139031],[-74.160082,39.7138906],[-74.1600811,39.7138788],[-74.160082,39.7138643],[-74.160085,39.7138492],[-74.16009,39.7138332],[-74.1600971,39.7138162],[-74.1601045,39.7138015],[-74.1601137,39.7137851],[-74.1601467,39.7137316],[-74.160158,39.7137124],[-74.1601678,39.7136938],[-74.1601753,39.7136769],[-74.1601809,39.7136604],[-74.1601845,39.7136448],[-74.1601859,39.7136298],[-74.1601854,39.7136154],[-74.1601837,39.7136029],[-74.1601814,39.7135903],[-74.1601787,39.7135778],[-74.1601753,39.7135654],[-74.1601715,39.7135533],[-74.1601673,39.7135415],[-74.1601625,39.7135301],[-74.1601574,39.7135191],[-74.1601529,39.7135111],[-74.1601473,39.713503],[-74.1601405,39.7134947],[-74.1601325,39.7134861],[-74.1601162,39.7134708],[-74.1600758,39.7134361],[-74.1600663,39.7134271],[-74.1600584,39.7134188],[-74.1600513,39.7134104],[-74.1600454,39.7134023],[-74.1600407,39.7133942],[-74.1600371,39.7133862],[-74.1600322,39.7133724],[-74.1600282,39.7133584],[-74.1600252,39.7133446],[-74.1600232,39.713331],[-74.1600223,39.713318],[-74.1600223,39.7133055],[-74.1600234,39.7132936],[-74.1600255,39.7132823],[-74.1600279,39.713274],[-74.1600313,39.7132654],[-74.1600355,39.7132564],[-74.1600408,39.7132469],[-74.1600536,39.7132273],[-74.1600769,39.7131955],[-74.160087,39.713183],[-74.1600989,39.7131706],[-74.1601128,39.7131582],[-74.1601289,39.7131455],[-74.1601437,39.7131349],[-74.160161,39.7131235],[-74.160219,39.7130872],[-74.1602395,39.713074],[-74.1602585,39.7130608],[-74.1602746,39.7130484],[-74.1602894,39.7130355],[-74.160302,39.7130227],[-74.1603126,39.7130098],[-74.1603212,39.7129967],[-74.1603345,39.7129732],[-74.1603432,39.7129554],[-74.1603495,39.7129392],[-74.1603532,39.7129244],[-74.1603546,39.7129151],[-74.1603554,39.7129055],[-74.1603556,39.7128958],[-74.1603552,39.712886],[-74.1603542,39.7128763],[-74.1603527,39.7128667],[-74.1603506,39.7128572],[-74.1603479,39.7128481],[-74.1603447,39.7128393],[-74.1603406,39.7128302],[-74.1603356,39.712821],[-74.1603298,39.7128114],[-74.1603231,39.7128017],[-74.1603156,39.7127916],[-74.1602974,39.7127701],[-74.1602881,39.7127605],[-74.1602777,39.7127509],[-74.1602659,39.7127412],[-74.1602526,39.7127314],[-74.160239,39.712722],[-74.1602233,39.712712],[-74.1601711,39.7126802],[-74.1601545,39.7126709],[-74.1601359,39.7126621],[-74.1601153,39.7126538],[-74.1600923,39.7126458],[-74.1600708,39.7126393],[-74.1600464,39.7126326],[-74.1599611,39.7126114],[-74.159929,39.7126028],[-74.1598976,39.7125933],[-74.1598837,39.7125884],[-74.1598709,39.7125835],[-74.1598565,39.7125773],[-74.1598434,39.7125709],[-74.1598314,39.7125641],[-74.1598204,39.712557],[-74.1598104,39.7125496],[-74.1598014,39.7125417],[-74.1597934,39.7125334],[-74.1597863,39.7125247],[-74.1597745,39.7125076],[-74.159764,39.7124898],[-74.1597551,39.712472],[-74.1597481,39.7124547],[-74.1597457,39.7124462],[-74.1597442,39.7124372],[-74.1597436,39.7124275],[-74.1597439,39.712417],[-74.1597462,39.7123975],[-74.1597543,39.7123523],[-74.1597556,39.7123413],[-74.1597561,39.7123315],[-74.1597559,39.7123224],[-74.1597549,39.712314],[-74.1597532,39.712306],[-74.1597507,39.7122986],[-74.1597454,39.7122869],[-74.1597389,39.7122748],[-74.1597311,39.7122625],[-74.1597221,39.71225],[-74.1597118,39.7122372],[-74.1597005,39.7122242],[-74.159688,39.7122113],[-74.1596747,39.7121985],[-74.159667,39.7121918],[-74.1596586,39.7121855],[-74.1596496,39.7121794],[-74.1596399,39.7121736],[-74.1596295,39.7121681],[-74.1596183,39.7121629],[-74.1596064,39.7121578],[-74.1595935,39.712153],[-74.1595695,39.7121451],[-74.1595417,39.7121374],[-74.1595133,39.7121304],[-74.1594371,39.7121128],[-74.1594149,39.7121071],[-74.1593954,39.7121016],[-74.1593739,39.7120948],[-74.1593547,39.7120877],[-74.1593371,39.7120802],[-74.1593212,39.7120722],[-74.1592635,39.7120415],[-74.1592397,39.7120284],[-74.1592157,39.7120143],[-74.1591954,39.712001],[-74.1591762,39.7119867],[-74.15916,39.7119726],[-74.1591529,39.7119655],[-74.1591465,39.7119583],[-74.1591408,39.7119512],[-74.1591358,39.7119439],[-74.159128,39.7119308],[-74.1591209,39.7119167],[-74.1591148,39.7119019],[-74.1591096,39.7118865],[-74.1591054,39.7118708],[-74.1591024,39.7118551],[-74.1591005,39.7118395],[-74.1590998,39.7118245],[-74.1591004,39.7118143],[-74.1591023,39.7118038],[-74.1591055,39.7117929],[-74.1591101,39.7117813],[-74.1591154,39.7117702],[-74.1591221,39.711758],[-74.1591504,39.711712],[-74.1591613,39.7116925],[-74.1591664,39.7116819],[-74.1591704,39.7116719],[-74.1591735,39.7116623],[-74.1591756,39.7116531],[-74.1591786,39.7116352],[-74.1591808,39.7116186],[-74.1591822,39.711603],[-74.1591829,39.7115882],[-74.1591829,39.711574],[-74.1591821,39.7115606],[-74.1591806,39.7115478],[-74.1591783,39.7115357],[-74.1591732,39.7115171],[-74.1591662,39.711498],[-74.1591574,39.7114788],[-74.1591468,39.7114597],[-74.1591346,39.7114408],[-74.159121,39.7114225],[-74.1591062,39.7114051],[-74.1590904,39.7113887],[-74.1590827,39.7113819],[-74.159074,39.7113753],[-74.1590643,39.7113689],[-74.1590534,39.7113625],[-74.1590409,39.711356],[-74.1590266,39.7113493],[-74.1589653,39.7113232],[-74.1589394,39.711311],[-74.1589261,39.7113038],[-74.1589143,39.7112965],[-74.158904,39.711289],[-74.1588949,39.7112813],[-74.158875,39.711263],[-74.158864,39.7112519],[-74.1588553,39.7112411],[-74.1588493,39.711231],[-74.1588469,39.7112251],[-74.1588451,39.7112187],[-74.1588438,39.7112117],[-74.158843,39.7112042],[-74.158843,39.7111884],[-74.1588449,39.7111587],[-74.1588468,39.7111374],[-74.1588504,39.7111156],[-74.1588558,39.7110935],[-74.1588629,39.7110712],[-74.1588717,39.7110488],[-74.158882,39.7110265],[-74.1588939,39.7110044],[-74.1589072,39.7109826],[-74.1589219,39.7109615],[-74.1589378,39.710941],[-74.1589549,39.7109214],[-74.1589729,39.7109028],[-74.1589918,39.7108853],[-74.1590115,39.7108691],[-74.1590318,39.7108542],[-74.1590526,39.7108407],[-74.1590704,39.7108305],[-74.1590899,39.7108206],[-74.159111,39.7108109],[-74.1591337,39.7108015],[-74.1591579,39.7107925],[-74.1591837,39.7107837],[-74.1592108,39.7107753],[-74.1592392,39.7107672],[-74.1592666,39.7107604],[-74.159295,39.7107545],[-74.1593242,39.7107494],[-74.1593544,39.7107453],[-74.1593853,39.7107421],[-74.159417,39.7107397],[-74.1594493,39.7107383],[-74.1594821,39.7107379],[-74.1595155,39.7107383],[-74.1595492,39.7107397],[-74.1595831,39.7107421],[-74.1596171,39.7107453],[-74.1596509,39.7107495],[-74.1596845,39.7107545],[-74.1597177,39.7107604],[-74.1597504,39.7107672],[-74.1597724,39.7107728],[-74.1597966,39.7107806],[-74.1598193,39.7107889],[-74.159873,39.7108095],[-74.1599001,39.710819],[-74.1599259,39.7108265],[-74.159938,39.7108293],[-74.1599498,39.7108316],[-74.1599843,39.7108373],[-74.1600103,39.7108406],[-74.1600336,39.7108423],[-74.1600547,39.7108425],[-74.1600724,39.7108414],[-74.1600908,39.7108393],[-74.1601096,39.7108362],[-74.1601288,39.710832],[-74.1601482,39.7108269],[-74.1601676,39.7108208],[-74.1601867,39.7108139],[-74.1602053,39.7108063],[-74.1602136,39.7108023],[-74.1602218,39.7107976],[-74.16023,39.7107922],[-74.1602383,39.7107861],[-74.160247,39.7107788],[-74.1602562,39.7107704],[-74.1602926,39.710734],[-74.1603093,39.7107188],[-74.160319,39.7107111],[-74.1603285,39.7107045],[-74.160338,39.7106988],[-74.1603477,39.7106941],[-74.1603739,39.7106825],[-74.1603924,39.7106755],[-74.1604095,39.7106706],[-74.1604174,39.7106689],[-74.1604251,39.7106678],[-74.1604357,39.710667],[-74.160447,39.7106669],[-74.1604588,39.7106675],[-74.160471,39.7106687],[-74.1604834,39.7106706],[-74.1604958,39.7106731],[-74.1605079,39.7106762],[-74.1605193,39.7106798],[-74.160525,39.7106821],[-74.1605306,39.7106849],[-74.1605362,39.7106882],[-74.1605418,39.7106921],[-74.1605534,39.7107018],[-74.1605766,39.7107246],[-74.1605872,39.710734],[-74.1605933,39.7107386],[-74.1605993,39.7107426],[-74.1606053,39.7107459],[-74.1606113,39.7107486],[-74.1606266,39.7107542],[-74.1606422,39.7107589],[-74.1606574,39.7107624],[-74.1606716,39.7107647],[-74.1606775,39.7107652],[-74.1606833,39.7107653],[-74.1606954,39.7107642],[-74.1607078,39.7107614],[-74.1607209,39.7107569],[-74.1607334,39.7107512],[-74.1607472,39.7107439],[-74.1607611,39.7107356],[-74.1607987,39.7107121],[-74.1608102,39.7107055],[-74.1608205,39.7107002],[-74.1608324,39.7106949],[-74.1608437,39.7106909],[-74.1608544,39.7106882],[-74.1608649,39.7106868],[-74.1608758,39.7106865],[-74.1608873,39.7106872],[-74.1608993,39.7106889],[-74.160912,39.7106917],[-74.1609259,39.7106956],[-74.1609413,39.7107009],[-74.1609577,39.7107072],[-74.1610057,39.7107264],[-74.1610208,39.7107319],[-74.1610343,39.7107362],[-74.16105,39.7107402],[-74.1610646,39.7107428],[-74.1610785,39.7107441],[-74.1610918,39.7107441],[-74.1611133,39.7107424],[-74.1611344,39.7107397],[-74.1611544,39.710736],[-74.1611731,39.7107314],[-74.1611847,39.7107272],[-74.1611971,39.7107208],[-74.1612086,39.7107136],[-74.1612356,39.7106952],[-74.1612496,39.7106871],[-74.161257,39.7106838],[-74.1612641,39.7106814],[-74.161271,39.7106797],[-74.1612778,39.7106789],[-74.1612871,39.7106788],[-74.1612973,39.7106794],[-74.1613081,39.7106808],[-74.1613194,39.7106829],[-74.1613309,39.7106856],[-74.1613422,39.710689],[-74.1613527,39.7106928],[-74.1613621,39.7106968],[-74.1613686,39.7107004],[-74.1613746,39.7107046],[-74.16138,39.7107094],[-74.1613849,39.710715],[-74.1613893,39.7107211],[-74.1613932,39.710728],[-74.1613967,39.7107356],[-74.1613997,39.7107439],[-74.1614037,39.7107598],[-74.1614067,39.7107786],[-74.1614085,39.7107974],[-74.1614114,39.7108402],[-74.1614135,39.7108591],[-74.1614153,39.710873],[-74.1614165,39.7108872],[-74.1614171,39.7109018],[-74.1614171,39.7109167],[-74.1614165,39.7109321],[-74.1614152,39.710948],[-74.1614109,39.7109815],[-74.1614052,39.7110124],[-74.1613974,39.711047],[-74.161389,39.7110798],[-74.1613694,39.711153],[-74.1613613,39.7111854],[-74.1613481,39.7112386],[-74.1613345,39.7112895],[-74.1613203,39.7113384],[-74.1613055,39.7113854],[-74.16129,39.7114309],[-74.1612737,39.7114748],[-74.1612566,39.7115173],[-74.1612387,39.7115586],[-74.1611888,39.7116757],[-74.1611748,39.7117056],[-74.1611613,39.7117317],[-74.1611452,39.711759],[-74.1611369,39.7117717],[-74.1611285,39.7117837],[-74.1611197,39.7117951],[-74.1611107,39.711806],[-74.1611014,39.7118165],[-74.1610918,39.7118264],[-74.1610747,39.7118428],[-74.1610575,39.7118583],[-74.1610402,39.7118729],[-74.1610228,39.7118865],[-74.1610054,39.7118992],[-74.1609879,39.711911],[-74.1609704,39.7119217],[-74.1609529,39.7119314],[-74.1609367,39.7119396],[-74.1609192,39.7119474],[-74.1609003,39.7119551],[-74.1608799,39.7119625],[-74.1608583,39.7119698],[-74.1608346,39.7119771],[-74.1608082,39.7119846],[-74.1607759,39.7119934],[-74.160761,39.711997],[-74.1607455,39.712],[-74.1607295,39.7120025],[-74.1607128,39.7120044],[-74.1606955,39.7120058],[-74.1606775,39.7120066],[-74.1606587,39.7120069],[-74.1606389,39.7120066],[-74.1606046,39.712005],[-74.1605659,39.712002],[-74.1605285,39.7119981],[-74.1604377,39.711988],[-74.1603914,39.7119837],[-74.1603683,39.7119821],[-74.1603468,39.7119812],[-74.1603265,39.7119808],[-74.1603073,39.711981],[-74.160287,39.7119819],[-74.1602676,39.7119835],[-74.1602492,39.7119858],[-74.1602315,39.7119889],[-74.1602146,39.7119928],[-74.1601985,39.7119974],[-74.1601829,39.7120027],[-74.1601681,39.7120089],[-74.1601321,39.712025],[-74.1601117,39.7120351],[-74.1601025,39.7120404],[-74.1600943,39.7120457],[-74.1600871,39.712051],[-74.1600807,39.7120563],[-74.1600726,39.7120642],[-74.1600651,39.7120727],[-74.160058,39.7120818],[-74.1600517,39.7120913],[-74.160046,39.7121011],[-74.1600412,39.712111],[-74.1600374,39.712121],[-74.1600344,39.7121307],[-74.1600327,39.7121388],[-74.1600315,39.7121472],[-74.1600309,39.7121558],[-74.1600309,39.7121646],[-74.1600314,39.7121734],[-74.1600324,39.7121821],[-74.160034,39.7121907],[-74.1600362,39.7121991],[-74.1600385,39.7122061],[-74.1600414,39.7122132],[-74.1600494,39.7122283],[-74.1600602,39.7122447],[-74.160075,39.7122641],[-74.1600875,39.7122784],[-74.1601022,39.7122925],[-74.1601191,39.7123065],[-74.1601385,39.7123205],[-74.1601598,39.7123343],[-74.1601841,39.7123485],[-74.1602117,39.7123634],[-74.1602466,39.7123812],[-74.1602682,39.7123914],[-74.1602908,39.7124011],[-74.1603145,39.7124102],[-74.1603392,39.7124188],[-74.1603649,39.7124267],[-74.1603916,39.7124341],[-74.1604193,39.712441],[-74.1604479,39.7124472],[-74.1604775,39.7124528],[-74.160508,39.7124579],[-74.1605393,39.7124623],[-74.1605714,39.7124661],[-74.1606043,39.7124693],[-74.1606379,39.7124718],[-74.1606721,39.7124738],[-74.1607068,39.712475],[-74.1607382,39.7124756],[-74.1607676,39.7124757],[-74.1607955,39.7124753],[-74.1608221,39.7124743],[-74.1608476,39.7124727],[-74.1608719,39.7124707],[-74.1608951,39.712468],[-74.1609173,39.7124648],[-74.1609359,39.7124615],[-74.1609548,39.7124576],[-74.1609738,39.712453],[-74.1609931,39.7124478],[-74.1610127,39.7124419],[-74.1610327,39.7124353],[-74.1610529,39.7124281],[-74.1610737,39.7124201],[-74.1610943,39.7124117],[-74.1611155,39.7124025],[-74.1611602,39.7123817],[-74.1612086,39.7123573],[-74.1612691,39.7123252],[-74.1613043,39.7123055],[-74.1613397,39.7122839],[-74.1613755,39.7122606],[-74.1614119,39.7122353],[-74.1614488,39.712208],[-74.1614869,39.7121783],[-74.1615268,39.7121459],[-74.1615698,39.7121095],[-74.161604,39.7120792],[-74.161638,39.7120472],[-74.1616721,39.7120134],[-74.1617063,39.7119777],[-74.1617407,39.7119401],[-74.1617757,39.7119001],[-74.1618116,39.7118573],[-74.1618491,39.7118109],[-74.161861,39.7117948],[-74.1618724,39.7117773],[-74.1618834,39.7117581],[-74.1618941,39.711737],[-74.1619035,39.7117163],[-74.1619132,39.7116929],[-74.1619466,39.7116055],[-74.1619611,39.7115703],[-74.1619695,39.7115518],[-74.1619779,39.7115349],[-74.1619864,39.7115194],[-74.1619951,39.7115051],[-74.1620065,39.7114885],[-74.1620185,39.7114734],[-74.1620311,39.7114597],[-74.1620445,39.7114473],[-74.1620587,39.7114362],[-74.1620737,39.7114263],[-74.1620897,39.7114176],[-74.1621065,39.7114101],[-74.1621363,39.7113988],[-74.1621634,39.71139],[-74.1621885,39.7113834],[-74.1622003,39.711381],[-74.1622117,39.7113791],[-74.1622236,39.711378],[-74.1622363,39.711378],[-74.1622498,39.7113791],[-74.1622644,39.7113813],[-74.1622771,39.7113839],[-74.1622914,39.7113874],[-74.1623542,39.7114047],[-74.1623698,39.7114082],[-74.1623838,39.7114105],[-74.1623971,39.7114119],[-74.1624095,39.7114123],[-74.1624212,39.7114116],[-74.1624323,39.7114098],[-74.1624549,39.7114043],[-74.1624762,39.7113976],[-74.1624953,39.7113899],[-74.1625039,39.7113858],[-74.1625118,39.7113814],[-74.1625202,39.7113763],[-74.1625284,39.7113706],[-74.1625363,39.7113645],[-74.1625438,39.7113581],[-74.162551,39.7113513],[-74.1625576,39.7113444],[-74.1625636,39.7113373],[-74.162569,39.7113302],[-74.1625728,39.7113243],[-74.1625762,39.711318],[-74.1625822,39.7113035],[-74.1625869,39.7112877],[-74.1625941,39.7112576],[-74.1625972,39.7112427],[-74.1625991,39.7112269],[-74.1625998,39.7112104],[-74.1625993,39.7111926],[-74.1625979,39.7111756],[-74.1625955,39.7111566],[-74.1625835,39.7110853],[-74.1625795,39.7110555],[-74.1625782,39.7110395],[-74.1625778,39.7110246],[-74.1625781,39.7110105],[-74.1625793,39.710997],[-74.162587,39.710925],[-74.1625903,39.7109039],[-74.1625943,39.7108853],[-74.1625996,39.7108665],[-74.162606,39.7108494],[-74.1626136,39.7108338],[-74.1626225,39.7108194],[-74.1626287,39.7108109],[-74.1626357,39.7108022],[-74.1626521,39.7107843],[-74.1626718,39.7107654],[-74.1626958,39.7107446],[-74.1627076,39.7107356],[-74.1627209,39.710727],[-74.1627359,39.7107186],[-74.1627528,39.7107104],[-74.1627681,39.7107038],[-74.1627856,39.7106968],[-74.1628641,39.7106675],[-74.162883,39.7106596],[-74.1628994,39.7106519],[-74.1629144,39.7106439],[-74.1629278,39.7106357],[-74.1629396,39.7106272],[-74.1629501,39.7106183],[-74.1629712,39.7105974],[-74.1629809,39.7105868],[-74.1629901,39.7105761],[-74.1629985,39.7105653],[-74.1630063,39.7105546],[-74.1630134,39.710544],[-74.1630197,39.7105334],[-74.1630257,39.7105222],[-74.1630313,39.7105105],[-74.1630364,39.7104986],[-74.1630409,39.7104864],[-74.1630449,39.710474],[-74.1630484,39.7104615],[-74.1630512,39.7104489],[-74.1630534,39.7104364],[-74.163055,39.7104229],[-74.1630558,39.7104087],[-74.1630557,39.7103941],[-74.1630549,39.7103789],[-74.1630532,39.7103632],[-74.1630507,39.7103469],[-74.1630474,39.71033],[-74.1630432,39.7103124],[-74.1630392,39.7102981],[-74.1630342,39.7102834],[-74.1630284,39.7102684],[-74.1630217,39.7102529],[-74.1630142,39.710237],[-74.1630057,39.7102207],[-74.1629963,39.7102038],[-74.1629858,39.7101862],[-74.1629763,39.7101725],[-74.1629647,39.7101589],[-74.1629507,39.7101452],[-74.1629341,39.710131],[-74.1629183,39.7101189],[-74.1628999,39.7101058],[-74.1628354,39.710063],[-74.162812,39.7100468],[-74.1627902,39.7100302],[-74.1627724,39.7100147],[-74.1627635,39.7100059],[-74.1627557,39.7099971],[-74.1627489,39.7099884],[-74.1627431,39.7099797],[-74.1627383,39.709971],[-74.1627344,39.7099622],[-74.1627315,39.7099533],[-74.1627295,39.7099443],[-74.1627254,39.7099172],[-74.1627245,39.7099071],[-74.1627242,39.709898],[-74.1627246,39.7098893],[-74.1627257,39.7098813],[-74.1627274,39.7098739],[-74.1627298,39.7098672],[-74.1627339,39.709859],[-74.1627391,39.7098507],[-74.1627454,39.7098424],[-74.1627527,39.7098341],[-74.162761,39.7098261],[-74.16277,39.7098184],[-74.1627794,39.7098113],[-74.1627891,39.709805],[-74.1627983,39.7098001],[-74.1628086,39.7097956],[-74.1628202,39.7097916],[-74.1628332,39.709788],[-74.1628467,39.7097849],[-74.1628621,39.709782],[-74.1629089,39.709775],[-74.1629257,39.7097728],[-74.1629432,39.7097711],[-74.1629615,39.7097699],[-74.1629807,39.7097691],[-74.1630008,39.7097689],[-74.163022,39.7097691],[-74.1630694,39.7097709],[-74.1630885,39.7097725],[-74.1631082,39.7097751],[-74.1631286,39.7097788],[-74.16315,39.7097836],[-74.1631722,39.7097895],[-74.1631965,39.7097968],[-74.1632927,39.7098287],[-74.1633147,39.7098356],[-74.1633346,39.7098413],[-74.1633576,39.7098471],[-74.1633793,39.7098517],[-74.1634001,39.7098552],[-74.1634202,39.7098574],[-74.1634768,39.7098621],[-74.1634976,39.7098633],[-74.1635165,39.7098639],[-74.1635348,39.709864],[-74.1635519,39.7098635],[-74.1635681,39.7098624],[-74.1635834,39.7098608],[-74.1635996,39.7098582],[-74.1636163,39.7098549],[-74.1636336,39.7098507],[-74.1636517,39.7098455],[-74.1636704,39.7098396],[-74.1636904,39.7098327],[-74.1637392,39.709814],[-74.1637545,39.7098074],[-74.16377,39.7097996],[-74.1637857,39.7097907],[-74.163802,39.7097804],[-74.1638158,39.7097709],[-74.1638309,39.70976],[-74.1638962,39.7097106],[-74.1639129,39.7096989],[-74.1639285,39.7096888],[-74.163944,39.7096797],[-74.1639591,39.7096718],[-74.163974,39.709665],[-74.1639889,39.7096593],[-74.1640179,39.7096497],[-74.1640473,39.7096412],[-74.1640767,39.7096339],[-74.164106,39.7096277],[-74.1641348,39.7096228],[-74.164163,39.7096191],[-74.1641906,39.7096168],[-74.1642173,39.7096157],[-74.1642441,39.7096161],[-74.1642741,39.7096183],[-74.1643046,39.7096217],[-74.1643678,39.7096299],[-74.1643988,39.7096344],[-74.1644309,39.7096403],[-74.1644644,39.7096477],[-74.1645001,39.7096567],[-74.164531,39.7096653],[-74.1645653,39.7096756],[-74.164678,39.7097114],[-74.1647196,39.7097242],[-74.1647607,39.7097359],[-74.164798,39.7097454],[-74.1648369,39.7097539],[-74.1648738,39.7097604],[-74.1648917,39.7097629],[-74.1649094,39.7097649],[-74.1649267,39.7097665],[-74.1649439,39.7097675],[-74.1649895,39.7097706],[-74.1650087,39.7097714],[-74.1650282,39.7097711],[-74.1650451,39.7097695],[-74.1650618,39.7097663],[-74.1650789,39.7097617],[-74.1650964,39.7097557],[-74.1651142,39.7097482],[-74.1651324,39.7097392],[-74.1651506,39.709729],[-74.1651687,39.7097175],[-74.1651863,39.7097051],[-74.1651961,39.709697],[-74.1652053,39.7096878],[-74.165214,39.7096774],[-74.1652222,39.7096656],[-74.165229,39.7096545],[-74.165236,39.7096418],[-74.1652587,39.709595],[-74.1652684,39.7095766],[-74.1652796,39.7095584],[-74.1652854,39.7095505],[-74.1652914,39.7095431],[-74.1653178,39.7095137],[-74.1653431,39.7094879],[-74.165368,39.709465],[-74.1653803,39.7094546],[-74.1653927,39.7094449],[-74.1654168,39.7094275],[-74.1654427,39.7094108],[-74.1654705,39.7093947],[-74.1654998,39.7093794],[-74.1655306,39.7093649],[-74.1655625,39.7093513],[-74.1655954,39.7093388],[-74.165629,39.7093275],[-74.1656541,39.7093202],[-74.1656808,39.7093135],[-74.1657092,39.7093074],[-74.1657396,39.7093019],[-74.1657715,39.709297],[-74.1658065,39.7092925],[-74.1658452,39.7092882],[-74.1658932,39.7092835],[-74.1659179,39.7092817],[-74.1659437,39.7092808],[-74.1659706,39.7092807],[-74.1659992,39.7092815],[-74.1660306,39.7092832],[-74.1660653,39.7092858],[-74.1661022,39.7092893],[-74.1662072,39.7093],[-74.1662397,39.7093028],[-74.1662689,39.7093048],[-74.1663025,39.7093062],[-74.1663337,39.7093065],[-74.1663632,39.7093058],[-74.1663913,39.7093039],[-74.1664443,39.7092984],[-74.166497,39.7092915],[-74.1665496,39.709283],[-74.1666019,39.709273],[-74.1666541,39.7092615],[-74.1667061,39.7092486],[-74.1667578,39.7092341],[-74.1668094,39.7092181],[-74.1505545,39.698726],[-74.1505999,39.6986075],[-74.1506539,39.6984642],[-74.1506772,39.6984009],[-74.1507003,39.6983363],[-74.1507232,39.69827],[-74.1507459,39.698202],[-74.1507686,39.6981321],[-74.1507913,39.69806],[-74.1508142,39.6979852],[-74.1508374,39.6979073],[-74.1508756,39.6977745],[-74.1509167,39.6976263],[-74.1509551,39.6974845],[-74.151046,39.6971451],[-74.1510929,39.6969734],[-74.1511393,39.6968096],[-74.1511832,39.6966617],[-74.1512054,39.6965898],[-74.1512275,39.6965202],[-74.1512497,39.6964526],[-74.1512718,39.6963869],[-74.1512942,39.6963228],[-74.1513167,39.6962601],[-74.1513394,39.6961988],[-74.1513625,39.6961387],[-74.1514344,39.6959539],[-74.1514782,39.6958441],[-74.1514999,39.6957916],[-74.1515208,39.6957424],[-74.1515413,39.6956956],[-74.1515615,39.6956509],[-74.1515941,39.6955819],[-74.1516319,39.6955055],[-74.1516694,39.6954319],[-74.1517598,39.6952569],[-74.1518594,39.6950608],[-74.1519042,39.6949739],[-74.1519508,39.6948861],[-74.1519942,39.6948078],[-74.152071,39.6946714],[-74.1521046,39.6946126],[-74.1521397,39.6945527],[-74.1521722,39.6944992],[-74.1522066,39.6944454],[-74.1522402,39.6943955],[-74.1522736,39.6943487],[-74.1523073,39.6943045],[-74.1523393,39.694265],[-74.152374,39.6942243],[-74.1524118,39.6941822],[-74.1524532,39.694138],[-74.1524949,39.6940949],[-74.1525422,39.6940475],[-74.1526976,39.6938953],[-74.1527669,39.6938277],[-74.1528324,39.693765],[-74.1528951,39.693706],[-74.1529559,39.69365],[-74.1530154,39.6935964],[-74.1530737,39.693545],[-74.1531311,39.6934958],[-74.1531878,39.6934484],[-74.153319,39.6933404],[-74.1533624,39.6933055],[-74.1534021,39.6932746],[-74.1534425,39.6932441],[-74.1534812,39.693216],[-74.1535188,39.6931899],[-74.1535557,39.6931656],[-74.1535846,39.6931475],[-74.1536153,39.693129],[-74.1536482,39.69311],[-74.153684,39.6930902],[-74.1537493,39.6930552],[-74.1538726,39.6929911],[-74.1539216,39.6929653],[-74.1540279,39.6929092],[-74.1541369,39.6928529],[-74.1542488,39.6927964],[-74.1543639,39.6927395],[-74.1544823,39.6926821],[-74.1546046,39.6926239],[-74.1547311,39.6925649],[-74.1548625,39.6925046],[-74.1549907,39.6924467],[-74.155125,39.6923869],[-74.1552664,39.6923248],[-74.1554174,39.6922593],[-74.1555657,39.6921956],[-74.1557312,39.692125],[-74.1562729,39.6918957],[-74.156353,39.691862],[-74.1564369,39.6918273],[-74.156621,39.6917527],[-74.1567971,39.6916827],[-74.1572152,39.6915182],[-74.157423,39.691435],[-74.1575231,39.6913942],[-74.157617,39.6913553],[-74.1577062,39.6913177],[-74.1577914,39.6912811],[-74.1581592,39.6911217],[-74.1583203,39.6910515],[-74.1584736,39.6909834],[-74.1586111,39.6909209],[-74.1586846,39.6908868],[-74.1587577,39.6908523],[-74.1588316,39.690817],[-74.158907,39.6907804],[-74.1590658,39.6907017],[-74.1592399,39.6906136],[-74.1593405,39.6905664],[-74.1594402,39.6905182],[-74.1595391,39.6904692],[-74.159637,39.6904192],[-74.1597341,39.6903684],[-74.1598303,39.6903167],[-74.1599256,39.6902641],[-74.16002,39.6902106],[-74.1600726,39.69018],[-74.1601258,39.6901485],[-74.1601796,39.6901159],[-74.1602342,39.6900821],[-74.1602896,39.6900472],[-74.1603461,39.690011],[-74.1604039,39.6899734],[-74.1604632,39.6899341],[-74.1605805,39.6898548],[-74.1607088,39.689766],[-74.1608463,39.6896691],[-74.16107,39.6895099],[-74.1612997,39.689348],[-74.1613584,39.6893059],[-74.1614105,39.689268],[-74.1614658,39.6892267],[-74.1615169,39.6891875],[-74.1615646,39.6891497],[-74.1616094,39.6891128],[-74.161647,39.6890808],[-74.1616854,39.6890475],[-74.1617245,39.6890126],[-74.1617649,39.6889759],[-74.1618063,39.6889375],[-74.1618498,39.6888964],[-74.1619474,39.6888022],[-74.1620059,39.6887446],[-74.162059,39.6886917],[-74.1621082,39.6886416],[-74.1621542,39.6885937],[-74.162198,39.6885472],[-74.1622394,39.6885021],[-74.1622788,39.688458],[-74.1623162,39.6884147],[-74.1623774,39.6883425],[-74.1624272,39.6882822],[-74.1624716,39.6882269],[-74.1625116,39.6881752],[-74.1625488,39.6881248],[-74.1625829,39.6880763],[-74.1626141,39.6880292],[-74.1626428,39.6879831],[-74.1626706,39.687935],[-74.1626994,39.6878814],[-74.1627295,39.6878222],[-74.1627742,39.6877312],[-74.162794,39.6876895],[-74.1628133,39.6876468],[-74.1628321,39.6876029],[-74.1628504,39.6875578],[-74.1628682,39.6875114],[-74.1628856,39.6874635],[-74.1629027,39.6874139],[-74.1629196,39.6873623],[-74.1629344,39.687315],[-74.1629492,39.6872654],[-74.1629642,39.6872132],[-74.1629797,39.6871574],[-74.1630087,39.687048],[-74.1630622,39.6868391],[-74.1630843,39.686754],[-74.1631082,39.686666],[-74.1631307,39.6865872],[-74.163158,39.6864976],[-74.1631718,39.6864554],[-74.1631856,39.6864145],[-74.1631996,39.6863747],[-74.1632139,39.686336],[-74.1632284,39.6862983],[-74.1632433,39.6862614],[-74.1632631,39.6862145],[-74.1632863,39.6861625],[-74.1633673,39.6859884],[-74.1633973,39.6859224],[-74.1634256,39.685856],[-74.1634379,39.6858254],[-74.1634492,39.6857958],[-74.1634571,39.6857738],[-74.1634647,39.6857506],[-74.1634797,39.6856997],[-74.1634927,39.6856498],[-74.1635236,39.6855237],[-74.1635332,39.6854881],[-74.1635424,39.6854563],[-74.1635537,39.6854213],[-74.1635654,39.6853889],[-74.1635779,39.6853585],[-74.1635911,39.6853297],[-74.1636084,39.6852958],[-74.1636274,39.6852611],[-74.1636482,39.6852253],[-74.1636711,39.6851883],[-74.1636959,39.6851501],[-74.1637232,39.6851097],[-74.1637536,39.6850664],[-74.1637888,39.6850178],[-74.1638078,39.6849924],[-74.1638278,39.6849667],[-74.1638489,39.6849408],[-74.1638711,39.6849146],[-74.1638945,39.6848879],[-74.1639191,39.6848607],[-74.1639452,39.6848329],[-74.1639729,39.6848041],[-74.1640208,39.684756],[-74.1640754,39.6847029],[-74.164128,39.6846531],[-74.1642494,39.684539],[-74.1643058,39.6844852],[-74.1643532,39.6844388],[-74.1643956,39.6843959],[-74.1646323,39.6841521],[-74.1648684,39.683908],[-74.1651041,39.6836636],[-74.1653393,39.683419],[-74.165574,39.6831741],[-74.1658083,39.6829289],[-74.1660421,39.6826834],[-74.1662754,39.6824377],[-74.1665082,39.6821917],[-74.1667405,39.6819455],[-74.1669724,39.6816989],[-74.1672038,39.6814521],[-74.1674347,39.681205],[-74.1676651,39.6809577],[-74.167895,39.68071],[-74.1681245,39.6804621],[-74.1683535,39.680214],[-74.168582,39.6799655],[-74.1688101,39.6797168],[-74.1690376,39.6794678],[-74.1692647,39.6792186],[-74.1694913,39.678969],[-74.1697174,39.6787192],[-74.1699431,39.6784692],[-74.1701682,39.6782188],[-74.1703929,39.6779682],[-74.1706172,39.6777173],[-74.1708409,39.6774662],[-74.1710642,39.6772147],[-74.1712869,39.6769631],[-74.1715092,39.6767111],[-74.1717311,39.6764588],[-74.1722147,39.67595],[-74.1726976,39.6754409],[-74.17318,39.6749313],[-74.1736617,39.6744215],[-74.1741428,39.6739113],[-74.1746233,39.6734007],[-74.1751032,39.6728898],[-74.1755824,39.6723785],[-74.1757904,39.6721577],[-74.1760094,39.6719276],[-74.1762417,39.6716859],[-74.1764919,39.6714278],[-74.1767103,39.671204],[-74.1769545,39.6709549],[-74.1777541,39.670143],[-74.1780432,39.6698488],[-74.1783218,39.6695638],[-74.1785726,39.6693055],[-74.1788201,39.6690484],[-74.179052,39.6688051],[-74.1792717,39.668572],[-74.179481,39.6683472],[-74.1796201,39.6681962],[-74.1797553,39.668048],[-74.1798869,39.6679022],[-74.1800152,39.6677587],[-74.1801405,39.667617],[-74.1802628,39.6674772],[-74.1803822,39.6673389],[-74.180499,39.6672021],[-74.1806134,39.6670664],[-74.1807254,39.666932],[-74.1808349,39.6667986],[-74.1809421,39.6666663],[-74.1810471,39.6665349],[-74.1811499,39.6664043],[-74.1812506,39.6662746],[-74.1813492,39.6661455],[-74.181459,39.6660026],[-74.1814973,39.6659521],[-74.1815389,39.6658958],[-74.1815751,39.6658448],[-74.181608,39.6657964],[-74.1816412,39.6657461],[-74.1816746,39.6656937],[-74.1817087,39.6656387],[-74.1817432,39.6655813],[-74.1817792,39.6655201],[-74.1818171,39.665454],[-74.181859,39.6653798],[-74.1819057,39.665295],[-74.1819511,39.6652096],[-74.1819952,39.6651238],[-74.182038,39.6650376],[-74.1820795,39.6649511],[-74.1821197,39.6648642],[-74.1821585,39.6647771],[-74.1821958,39.6646897],[-74.1822696,39.6645149],[-74.1823078,39.6644219],[-74.1823429,39.6643325],[-74.1823583,39.6642912],[-74.1823724,39.6642516],[-74.1823865,39.6642104],[-74.1823994,39.6641704],[-74.1824112,39.6641316],[-74.182422,39.6640937],[-74.1824317,39.6640566],[-74.1824405,39.6640203],[-74.1824482,39.6639846],[-74.182455,39.6639495],[-74.1824606,39.6639168],[-74.1824657,39.6638834],[-74.1824702,39.6638494],[-74.1824743,39.6638148],[-74.1824778,39.6637794],[-74.1824808,39.6637433],[-74.1824834,39.6637063],[-74.1824854,39.6636684],[-74.1824879,39.6635903],[-74.1824886,39.6635072],[-74.1824874,39.6634176],[-74.1824843,39.6633173],[-74.182482,39.6632659],[-74.1824792,39.6632148],[-74.1824758,39.6631639],[-74.1824719,39.6631135],[-74.1824673,39.6630633],[-74.1824622,39.6630135],[-74.1824566,39.6629641],[-74.1824504,39.662915],[-74.1824436,39.6628663],[-74.1824362,39.6628179],[-74.1824283,39.66277],[-74.1824199,39.6627225],[-74.1824109,39.6626753],[-74.1824013,39.6626286],[-74.1823912,39.6625823],[-74.1823805,39.6625364],[-74.1823693,39.6624909],[-74.1823575,39.6624459],[-74.1823452,39.6624013],[-74.1823323,39.6623572],[-74.1823189,39.6623135],[-74.182305,39.6622702],[-74.1822905,39.6622274],[-74.1822754,39.662185],[-74.1822598,39.6621432],[-74.1822437,39.6621017],[-74.1822271,39.6620608],[-74.1822099,39.6620203],[-74.1821921,39.6619802],[-74.1821739,39.6619407],[-74.1821551,39.6619016],[-74.1821357,39.661863],[-74.1821147,39.6618229],[-74.1820924,39.6617823],[-74.1820687,39.6617411],[-74.1820436,39.6616992],[-74.182017,39.6616566],[-74.1819889,39.6616131],[-74.1819592,39.6615686],[-74.1819278,39.6615228],[-74.181896,39.6614779],[-74.1818624,39.6614314],[-74.1818265,39.6613829],[-74.1817878,39.6613317],[-74.181704,39.6612232],[-74.1815766,39.6610615],[-74.1815447,39.6610218],[-74.1815115,39.6609818],[-74.1814768,39.6609413],[-74.1814407,39.6609004],[-74.181403,39.6608589],[-74.1813637,39.6608167],[-74.1813225,39.6607737],[-74.1812794,39.6607296],[-74.1812355,39.6606857],[-74.1811891,39.6606402],[-74.1811399,39.6605928],[-74.1810871,39.6605426],[-74.1809785,39.6604414],[-74.180762,39.6602426],[-74.180672,39.6601592],[-74.1805787,39.6600713],[-74.1804965,39.6599917],[-74.1804489,39.6599445],[-74.1804038,39.6598988],[-74.1803609,39.6598543],[-74.1803199,39.6598107],[-74.1802807,39.6597679],[-74.1802432,39.6597257],[-74.1802072,39.659684],[-74.1801727,39.6596428],[-74.1800275,39.6594683],[-74.1799896,39.6594217],[-74.1799564,39.6593797],[-74.179922,39.6593346],[-74.1798909,39.659292],[-74.1798625,39.659251],[-74.1798366,39.6592112],[-74.1798022,39.6591555],[-74.1797701,39.6591008],[-74.1797401,39.659047],[-74.1797124,39.6589942],[-74.1796868,39.6589423],[-74.1796634,39.6588912],[-74.1796421,39.658841],[-74.1796229,39.6587917],[-74.1796119,39.6587609],[-74.1796013,39.6587298],[-74.1795912,39.6586986],[-74.1795817,39.6586672],[-74.1795727,39.6586357],[-74.1795642,39.658604],[-74.1795563,39.6585722],[-74.179549,39.6585404],[-74.1795422,39.6585085],[-74.1795359,39.6584765],[-74.1795302,39.6584446],[-74.1795251,39.6584126],[-74.1795205,39.6583806],[-74.1795165,39.6583486],[-74.1795131,39.6583167],[-74.1795103,39.6582849],[-74.179508,39.6582531],[-74.1795063,39.6582215],[-74.1795052,39.6581899],[-74.1795047,39.6581585],[-74.1795047,39.6581272],[-74.1795053,39.6580961],[-74.1795065,39.6580651],[-74.1795083,39.6580343],[-74.1795106,39.6580037],[-74.1795135,39.6579734],[-74.179517,39.6579432],[-74.1795211,39.6579132],[-74.1795257,39.6578835],[-74.1795309,39.6578541],[-74.1795366,39.6578249],[-74.179543,39.657796],[-74.1795564,39.65774],[-74.1795702,39.6576885],[-74.1795845,39.6576403],[-74.1795995,39.6575948],[-74.1796155,39.6575515],[-74.1796325,39.6575104],[-74.1796505,39.6574712],[-74.1796696,39.6574339],[-74.1796921,39.6573942],[-74.1797166,39.6573544],[-74.1797431,39.6573147],[-74.1797714,39.6572752],[-74.1798015,39.657236],[-74.1798333,39.6571974],[-74.1798665,39.6571594],[-74.179901,39.6571224],[-74.1799347,39.6570885],[-74.1799696,39.6570554],[-74.1800057,39.6570231],[-74.180043,39.6569916],[-74.1800815,39.6569608],[-74.1801213,39.6569309],[-74.1801624,39.6569017],[-74.1802046,39.6568734],[-74.1802481,39.6568458],[-74.1802928,39.6568191],[-74.1803387,39.6567931],[-74.1803859,39.6567679],[-74.1804343,39.6567435],[-74.1804839,39.6567199],[-74.1805348,39.6566971],[-74.1805869,39.6566751],[-74.1806703,39.6566529],[-74.1807534,39.6566302],[-74.1808363,39.6566071],[-74.180919,39.6565836],[-74.1810014,39.6565596],[-74.1810836,39.6565353],[-74.1811656,39.6565106],[-74.1812473,39.6564854],[-74.1813288,39.6564599],[-74.18141,39.6564339],[-74.181491,39.6564075],[-74.1815717,39.6563808],[-74.1816522,39.6563536],[-74.1817325,39.656326],[-74.1818125,39.656298],[-74.1818923,39.6562696],[-74.1820105,39.6562265],[-74.1821285,39.6561825],[-74.1822462,39.6561374],[-74.1823636,39.6560914],[-74.1824807,39.6560443],[-74.1825973,39.6559963],[-74.1827134,39.6559474],[-74.1828291,39.6558975],[-74.1829773,39.655832],[-74.1831223,39.655766],[-74.1832642,39.6556996],[-74.1834028,39.6556327],[-74.1835863,39.655542],[-74.1836683,39.6555008],[-74.1837458,39.6554613],[-74.1838202,39.6554228],[-74.1838916,39.6553853],[-74.1839603,39.6553486],[-74.1840267,39.6553125],[-74.1840918,39.6552765],[-74.1841549,39.6552408],[-74.1842162,39.6552054],[-74.1842758,39.6551703],[-74.1843338,39.6551353],[-74.1843903,39.6551005],[-74.1844454,39.6550658],[-74.1844991,39.6550311],[-74.1845487,39.6549982],[-74.1845994,39.654964],[-74.1846513,39.6549283],[-74.1847048,39.6548908],[-74.1847599,39.6548515],[-74.1848176,39.6548098],[-74.1849452,39.6547157],[-74.1850894,39.6546087],[-74.1851573,39.6545578],[-74.1852241,39.6545068],[-74.1852832,39.6544604],[-74.1853418,39.6544129],[-74.1853955,39.6543674],[-74.1854453,39.6543232],[-74.1854917,39.65428],[-74.1855271,39.6542454],[-74.1855623,39.6542098],[-74.1855972,39.654173],[-74.1856321,39.6541352],[-74.1856668,39.6540961],[-74.1857014,39.6540558],[-74.185736,39.6540142],[-74.1857707,39.6539711],[-74.1858052,39.6539271],[-74.18584,39.6538814],[-74.1858751,39.653834],[-74.1859108,39.6537846],[-74.1859471,39.6537331],[-74.1859845,39.6536788],[-74.1860234,39.6536212],[-74.1860648,39.6535588],[-74.1861162,39.6534797],[-74.1861624,39.6534063],[-74.1862046,39.6533368],[-74.1862434,39.6532702],[-74.1862793,39.6532057],[-74.1863124,39.653143],[-74.1863427,39.6530821],[-74.1863704,39.6530225],[-74.1863889,39.6529799],[-74.1864067,39.6529363],[-74.1864238,39.6528915],[-74.1864403,39.6528454],[-74.1864561,39.6527981],[-74.1864714,39.6527492],[-74.1864862,39.6526986],[-74.1865005,39.6526461],[-74.1865137,39.6525948],[-74.1865266,39.6525412],[-74.1865395,39.6524847],[-74.1865524,39.6524245],[-74.1865776,39.6522993],[-74.1866184,39.6520842],[-74.1866295,39.6520244],[-74.1866402,39.6519635],[-74.1866505,39.6519013],[-74.1866604,39.6518378],[-74.18667,39.651773],[-74.1866792,39.6517065],[-74.1866967,39.651568],[-74.1867059,39.6514839],[-74.1867141,39.651396],[-74.1867213,39.6513034],[-74.1867277,39.6512044],[-74.1867325,39.6511134],[-74.1867371,39.6510118],[-74.186753,39.6506007],[-74.1867549,39.6505484],[-74.186756,39.650495],[-74.1867564,39.6504405],[-74.186756,39.6503846],[-74.186755,39.6503274],[-74.1867531,39.6502685],[-74.1867506,39.6502078],[-74.1867472,39.6501448],[-74.1867393,39.6500251],[-74.1867285,39.6498923],[-74.186716,39.6497572],[-74.1866806,39.6493924],[-74.1866709,39.6492823],[-74.1866632,39.6491837],[-74.1866558,39.6490709],[-74.1866507,39.6489658],[-74.1866477,39.6488662],[-74.1866469,39.6487712],[-74.1866475,39.6487135],[-74.1866489,39.6486571],[-74.1866512,39.6486019],[-74.1866544,39.6485478],[-74.1866583,39.6484947],[-74.1866632,39.6484425],[-74.1866689,39.6483912],[-74.1866755,39.6483408],[-74.186683,39.648291],[-74.1866914,39.648242],[-74.1867006,39.6481937],[-74.1867108,39.6481461],[-74.1867219,39.6480991],[-74.1867339,39.6480527],[-74.1867468,39.6480069],[-74.1867607,39.6479616],[-74.1867862,39.6478837],[-74.1868132,39.647806],[-74.1868416,39.6477289],[-74.1868713,39.6476522],[-74.1869023,39.6475763],[-74.1869346,39.6475011],[-74.186968,39.6474267],[-74.1870027,39.6473533],[-74.187032,39.6472935],[-74.1870611,39.6472359],[-74.1870901,39.6471803],[-74.1871191,39.6471264],[-74.1871482,39.6470742],[-74.1871774,39.6470234],[-74.1872069,39.6469741],[-74.1872366,39.6469261],[-74.1872595,39.6468902],[-74.1872832,39.6468541],[-74.1873077,39.6468179],[-74.1873329,39.6467814],[-74.1873856,39.6467077],[-74.1874416,39.6466329],[-74.1875009,39.646557],[-74.1875636,39.6464797],[-74.1876301,39.6464007],[-74.1877006,39.6463196],[-74.1877569,39.6462563],[-74.1878077,39.6462003],[-74.1878555,39.6461488],[-74.1879014,39.6461008],[-74.1879463,39.6460552],[-74.1879901,39.6460121],[-74.1880334,39.6459712],[-74.1880761,39.6459322],[-74.1881182,39.6458954],[-74.1881621,39.6458587],[-74.1882081,39.6458219],[-74.1882562,39.645785],[-74.1883064,39.645748],[-74.1883589,39.6457106],[-74.1884141,39.6456727],[-74.1884721,39.6456342],[-74.188528,39.6455981],[-74.1885871,39.6455609],[-74.18865,39.6455223],[-74.1887177,39.6454815],[-74.1888498,39.6454039],[-74.1891391,39.6452366],[-74.1893455,39.6451164],[-74.1894138,39.6450775],[-74.1894757,39.645043],[-74.1895383,39.6450091],[-74.1895979,39.644978],[-74.1896553,39.6449492],[-74.1897112,39.6449224],[-74.1897726,39.6448943],[-74.1898364,39.6448662],[-74.189903,39.644838],[-74.1899725,39.6448097],[-74.1900451,39.6447812],[-74.1901218,39.6447521],[-74.1902034,39.6447221],[-74.1902917,39.6446904],[-74.190364,39.6446652],[-74.1904367,39.6446407],[-74.1905096,39.6446169],[-74.1905828,39.6445937],[-74.1906562,39.6445712],[-74.1907297,39.6445495],[-74.1908034,39.6445284],[-74.1908772,39.6445081],[-74.1909334,39.6444934],[-74.1909925,39.6444788],[-74.191055,39.6444642],[-74.1911224,39.6444492],[-74.1912468,39.6444231],[-74.1915404,39.644364],[-74.1916161,39.644348],[-74.1916843,39.644333],[-74.1918385,39.6442978],[-74.1919953,39.644261],[-74.1921553,39.6442227],[-74.1923188,39.6441826],[-74.1924862,39.6441408],[-74.1926581,39.644097],[-74.1928355,39.644051],[-74.1930195,39.6440025],[-74.1931803,39.6439596],[-74.1933481,39.6439142],[-74.193714,39.643814],[-74.1940598,39.6437179],[-74.1948531,39.6434962],[-74.1952258,39.643393],[-74.1954801,39.6433235],[-74.1962164,39.6431233],[-74.1964471,39.6430598],[-74.1966536,39.6430022],[-74.1968824,39.6429372],[-74.1970958,39.6428753],[-74.1972978,39.6428152],[-74.1974905,39.6427563],[-74.1975958,39.6427241],[-74.1977129,39.642689],[-74.1981533,39.6425595],[-74.1983368,39.6425046],[-74.1984355,39.6424744],[-74.1985275,39.6424456],[-74.1986143,39.6424177],[-74.198697,39.6423904],[-74.1987931,39.6423577],[-74.1988848,39.6423253],[-74.1989728,39.642293],[-74.1990576,39.6422605],[-74.1991395,39.6422279],[-74.1992187,39.6421949],[-74.1992953,39.6421615],[-74.1993697,39.6421276],[-74.1994654,39.6420823],[-74.1995603,39.6420359],[-74.1996545,39.6419883],[-74.1997478,39.6419396],[-74.1997571,39.6419347],[-74.1998876,39.6418617],[-74.2000247,39.6417862],[-74.2001671,39.641709],[-74.2003135,39.6416306],[-74.2004626,39.6415519],[-74.2006132,39.6414734],[-74.2007642,39.6413958],[-74.2009144,39.6413195],[-74.2010617,39.6412458],[-74.2012065,39.6411743],[-74.201348,39.6411056],[-74.2014855,39.6410398],[-74.2016183,39.6409773],[-74.2017461,39.6409184],[-74.2018684,39.6408631],[-74.2019848,39.6408117],[-74.2020308,39.6407913],[-74.2020819,39.640768],[-74.2022501,39.6406891],[-74.2023126,39.6406602],[-74.2023743,39.6406326],[-74.2024305,39.6406086],[-74.2024652,39.6405945],[-74.2024988,39.6405813],[-74.2025315,39.6405691],[-74.2025634,39.6405578],[-74.2025948,39.6405473],[-74.2026257,39.6405375],[-74.2026562,39.6405285],[-74.2026863,39.6405203],[-74.2027445,39.6405059],[-74.2028056,39.6404925],[-74.2028701,39.64048],[-74.2029385,39.6404684],[-74.2030102,39.6404577],[-74.203088,39.6404474],[-74.2031739,39.6404373],[-74.2032782,39.640426],[-74.2033249,39.6404208],[-74.2034338,39.6404077],[-74.2034829,39.6404021],[-74.2035348,39.6403971],[-74.2035811,39.6403936],[-74.2036064,39.6403923],[-74.2036307,39.6403915],[-74.2036542,39.6403911],[-74.2036768,39.6403913],[-74.2036989,39.6403919],[-74.2037202,39.640393],[-74.203741,39.6403946],[-74.2037613,39.6403967],[-74.2037861,39.6404],[-74.2038114,39.6404039],[-74.2038369,39.6404084],[-74.2038629,39.6404137],[-74.2038891,39.6404195],[-74.2039157,39.6404261],[-74.2039425,39.6404333],[-74.2039696,39.6404412],[-74.203997,39.6404497],[-74.2040247,39.6404588],[-74.2040525,39.6404686],[-74.2040806,39.640479],[-74.2041087,39.64049],[-74.204137,39.6405016],[-74.2041654,39.6405137],[-74.2041937,39.6405264],[-74.2042285,39.6405432],[-74.2042638,39.640562],[-74.2043,39.6405828],[-74.2043377,39.6406061],[-74.2043747,39.6406305],[-74.204415,39.6406583],[-74.2044568,39.6406881],[-74.2045331,39.6407435],[-74.2045762,39.6407756],[-74.2046202,39.6408099],[-74.2046653,39.6408468],[-74.2047123,39.6408868],[-74.2047582,39.6409272],[-74.2048084,39.6409726],[-74.2049621,39.6411153],[-74.2050049,39.6411564],[-74.2050471,39.6411993],[-74.2050886,39.6412442],[-74.2051296,39.6412912],[-74.2051701,39.6413403],[-74.2052103,39.6413918],[-74.2052505,39.6414459],[-74.2052908,39.641503],[-74.2053242,39.6415522],[-74.2053582,39.6416042],[-74.2053932,39.6416594],[-74.2054298,39.6417189],[-74.205497,39.6418316],[-74.2056154,39.6420355],[-74.2056614,39.6421137],[-74.2057086,39.6421923],[-74.205752,39.6422624],[-74.2058011,39.6423383],[-74.205825,39.642374],[-74.2058487,39.6424084],[-74.2058722,39.6424416],[-74.2058957,39.6424738],[-74.2059191,39.642505],[-74.2059425,39.6425352],[-74.2059702,39.6425699],[-74.2059981,39.6426033],[-74.2060261,39.6426357],[-74.2060544,39.642667],[-74.206083,39.6426974],[-74.2061119,39.6427268],[-74.2061411,39.6427553],[-74.2061707,39.6427829],[-74.2062007,39.6428096],[-74.2062311,39.6428355],[-74.2062619,39.6428606],[-74.2062933,39.6428848],[-74.2063251,39.6429083],[-74.2063574,39.6429309],[-74.2063902,39.6429528],[-74.2064235,39.6429739],[-74.2064505,39.642991],[-74.2065239,39.6430385],[-74.2065464,39.6430524],[-74.206567,39.6430646],[-74.2065907,39.6430776],[-74.2066133,39.643089],[-74.2066353,39.643099],[-74.2066569,39.6431076],[-74.2066879,39.6431189],[-74.2067163,39.6431284],[-74.2067431,39.6431365],[-74.2067687,39.6431433],[-74.2067934,39.643149],[-74.2068172,39.6431534],[-74.2068402,39.6431566],[-74.2068624,39.6431587],[-74.2068886,39.6431597],[-74.2069175,39.6431593],[-74.2069498,39.6431576],[-74.2069903,39.6431542],[-74.2070098,39.6431521],[-74.2070291,39.6431492],[-74.2070482,39.6431456],[-74.2070672,39.6431413],[-74.2070859,39.6431363],[-74.2071045,39.6431305],[-74.2071229,39.643124],[-74.2071411,39.6431168],[-74.2071592,39.6431088],[-74.2071772,39.6431001],[-74.2071951,39.6430906],[-74.207213,39.6430804],[-74.2072307,39.6430694],[-74.2072485,39.6430576],[-74.2072663,39.6430449],[-74.2072842,39.6430314],[-74.2073126,39.6430083],[-74.2073416,39.6429827],[-74.2073714,39.6429544],[-74.2074025,39.6429229],[-74.2074291,39.6428948],[-74.2074583,39.6428628],[-74.2075523,39.6427564],[-74.2075863,39.6427185],[-74.2076195,39.6426828],[-74.2076501,39.6426515],[-74.2076803,39.6426222],[-74.2077096,39.6425957],[-74.2077383,39.6425717],[-74.2077668,39.6425498],[-74.2079333,39.6424284],[-74.2080625,39.6423361],[-74.208123,39.6422938],[-74.2081808,39.642254],[-74.2082368,39.6422162],[-74.2082912,39.6421801],[-74.2083779,39.6421239],[-74.2084656,39.6420684],[-74.2085542,39.6420136],[-74.2086436,39.6419595],[-74.2087339,39.6419062],[-74.208825,39.6418537],[-74.2089169,39.641802],[-74.2090095,39.6417512],[-74.2091192,39.6416917],[-74.2091956,39.6416509],[-74.2092654,39.6416142],[-74.2093294,39.6415814],[-74.2093924,39.6415501],[-74.2094525,39.6415213],[-74.2095106,39.6414945],[-74.2095671,39.6414696],[-74.2096232,39.6414461],[-74.209682,39.6414224],[-74.2097443,39.6413985],[-74.2098106,39.641374],[-74.209879,39.6413497],[-74.2099545,39.6413235],[-74.2100378,39.6412954],[-74.2101615,39.6412542],[-74.2102992,39.6412093],[-74.2104373,39.6411661],[-74.2105756,39.6411246],[-74.2107141,39.6410849],[-74.2108527,39.6410469],[-74.210922,39.6410286],[-74.2109912,39.6410107],[-74.2110605,39.6409933],[-74.2111296,39.6409763],[-74.2111988,39.6409598],[-74.2112679,39.6409438],[-74.2113923,39.6409162],[-74.2115207,39.6408894],[-74.2116537,39.6408633],[-74.2117918,39.6408378],[-74.2119353,39.6408129],[-74.2120858,39.6407882],[-74.212245,39.6407634],[-74.2124162,39.6407382],[-74.2125743,39.6407162],[-74.212736,39.6406955],[-74.2129014,39.640676],[-74.213071,39.6406576],[-74.2132448,39.6406403],[-74.2134236,39.6406242],[-74.2136079,39.640609],[-74.2137984,39.6405948],[-74.2139014,39.6405878],[-74.2140065,39.6405815],[-74.2141137,39.6405759],[-74.2142233,39.6405708],[-74.2143355,39.6405663],[-74.2144508,39.6405624],[-74.2145695,39.6405591],[-74.2146922,39.6405563],[-74.2148119,39.6405542],[-74.2149367,39.6405525],[-74.2150677,39.6405513],[-74.215207,39.6405505],[-74.2154979,39.64055],[-74.2159826,39.6405509],[-74.2160376,39.640551],[-74.216255,39.6405526],[-74.2164823,39.6405559],[-74.2167217,39.6405608],[-74.2169781,39.6405675],[-74.2171968,39.6405742],[-74.2174398,39.6405824],[-74.2183037,39.6406142],[-74.2186505,39.6406262],[-74.2188845,39.6406332],[-74.2191293,39.6406394],[-74.2193874,39.6406447],[-74.2196638,39.6406494],[-74.2199063,39.6406527],[-74.2201765,39.6406558],[-74.2210789,39.6406643],[-74.2214168,39.6406679],[-74.221752,39.6406724],[-74.2220543,39.6406775],[-74.2222164,39.6406808],[-74.2223728,39.6406844],[-74.2225245,39.6406883],[-74.2226719,39.6406925],[-74.2228158,39.6406971],[-74.2229564,39.6407021],[-74.2230941,39.6407074],[-74.2232291,39.6407131],[-74.2234034,39.6407213],[-74.2235739,39.6407302],[-74.2237408,39.6407398],[-74.2239046,39.6407501],[-74.2240655,39.6407612],[-74.2242237,39.6407731],[-74.2243794,39.6407858],[-74.2245327,39.6407993],[-74.224684,39.6408136],[-74.2248332,39.6408288],[-74.2249804,39.6408448],[-74.2251258,39.6408617],[-74.2252693,39.6408794],[-74.2254112,39.640898],[-74.2255514,39.6409175],[-74.2256901,39.6409379],[-74.2257903,39.6409536],[-74.2259017,39.6409721],[-74.226008,39.6409904],[-74.2262621,39.641035],[-74.2263911,39.6410569],[-74.2265145,39.6410767],[-74.2266265,39.6410933],[-74.2266981,39.6411029],[-74.226778,39.6411125],[-74.2268556,39.6411211],[-74.2270485,39.6411418],[-74.2271511,39.6411536],[-74.2272039,39.6411603],[-74.2272534,39.6411671],[-74.2273003,39.6411741],[-74.2273451,39.6411813],[-74.2274276,39.6411957],[-74.2275126,39.6412117],[-74.2276005,39.6412294],[-74.2276922,39.6412489],[-74.2277871,39.6412702],[-74.2278884,39.6412939],[-74.2279983,39.6413205],[-74.2281252,39.641352],[-74.2281996,39.6413709],[-74.2282732,39.6413901],[-74.2283462,39.6414095],[-74.2284183,39.6414292],[-74.2284897,39.6414491],[-74.2285604,39.6414693],[-74.2286303,39.6414897],[-74.2286995,39.6415104],[-74.2287774,39.6415345],[-74.2288563,39.6415601],[-74.2289366,39.6415871],[-74.2290183,39.6416157],[-74.2291016,39.6416459],[-74.229187,39.641678],[-74.2292749,39.6417119],[-74.2293659,39.641748],[-74.2294353,39.6417761],[-74.2295073,39.6418058],[-74.2296624,39.6418712],[-74.2298278,39.6419424],[-74.2301597,39.6420873],[-74.2303003,39.6421482],[-74.2304485,39.6422113],[-74.230582,39.6422668],[-74.2306926,39.6423128],[-74.2308071,39.6423617],[-74.2309265,39.642414],[-74.2310526,39.6424705],[-74.2311776,39.6425275],[-74.2313155,39.6425912],[-74.2318451,39.6428396],[-74.2319637,39.6428948],[-74.2320704,39.642944],[-74.2321934,39.6429999],[-74.2323086,39.6430513],[-74.2324184,39.6430994],[-74.2325239,39.6431445],[-74.2326521,39.6431979],[-74.2327761,39.6432477],[-74.2328968,39.6432943],[-74.2329561,39.6433165],[-74.2330148,39.643338],[-74.233073,39.6433589],[-74.2331307,39.6433791],[-74.2331879,39.6433986],[-74.2332447,39.6434175],[-74.2333012,39.6434358],[-74.2333572,39.6434534],[-74.233413,39.6434704],[-74.2334685,39.6434869],[-74.2336559,39.6435415],[-74.2337735,39.6435752],[-74.2338824,39.6436053],[-74.2339815,39.6436315],[-74.2340795,39.643656],[-74.2341724,39.6436776],[-74.2342615,39.6436967],[-74.2343049,39.6437053],[-74.2343477,39.6437133],[-74.2344059,39.6437238],[-74.2344637,39.6437336],[-74.2345209,39.6437429],[-74.2345778,39.6437517],[-74.2346341,39.6437599],[-74.23469,39.6437675],[-74.2347454,39.6437746],[-74.2348003,39.6437811],[-74.2348547,39.6437871],[-74.2349087,39.6437925],[-74.2349622,39.6437974],[-74.2350152,39.6438017],[-74.2350677,39.6438055],[-74.2351198,39.6438087],[-74.2351714,39.6438113],[-74.2352225,39.6438134],[-74.2352737,39.643815],[-74.2353252,39.6438161],[-74.2353769,39.6438167],[-74.2354289,39.6438169],[-74.2354811,39.6438165],[-74.2355335,39.6438157],[-74.235586,39.6438144],[-74.2356387,39.6438126],[-74.2356916,39.6438103],[-74.2357445,39.6438076],[-74.2357975,39.6438044],[-74.2358505,39.6438007],[-74.2359035,39.6437965],[-74.2359566,39.6437919],[-74.2360096,39.6437867],[-74.2360625,39.6437812],[-74.2361589,39.6437702],[-74.2362429,39.6437597],[-74.2363201,39.6437491],[-74.236392,39.6437381],[-74.2364607,39.6437263],[-74.2365258,39.6437139],[-74.2365879,39.6437007],[-74.2366472,39.6436866],[-74.236681,39.6436778],[-74.2367152,39.6436683],[-74.2367499,39.6436581],[-74.2367852,39.643647],[-74.2368212,39.6436352],[-74.236858,39.6436225],[-74.2368957,39.643609],[-74.2369347,39.6435944],[-74.2370076,39.6435658],[-74.2370883,39.6435326],[-74.2371592,39.6435025],[-74.2373699,39.6434116],[-74.2374617,39.643372],[-74.2375539,39.6433311],[-74.2376462,39.6432888],[-74.2377389,39.6432451],[-74.2378319,39.6432],[-74.2379251,39.6431535],[-74.2380187,39.6431056],[-74.2381127,39.6430563],[-74.238207,39.6430056],[-74.2383017,39.6429534],[-74.2383968,39.6428998],[-74.2384924,39.6428447],[-74.2385886,39.642788],[-74.2386852,39.6427299],[-74.2387825,39.6426702],[-74.2388804,39.6426089],[-74.2389008,39.642596],[-74.2903802,39.6744519],[-74.2903804,39.674452],[-74.3034756,39.6825472],[-74.306336,39.684318],[-74.3117217,39.6876471],[-74.313608,39.6888125],[-74.3148421,39.6895755],[-74.3158049,39.6901707],[-74.3161351,39.6903638],[-74.3168574,39.6908101],[-74.3304486,39.699207],[-74.3311636,39.6996486],[-74.3322775,39.7003479],[-74.3324315,39.7004446],[-74.3364615,39.7029321],[-74.348511,39.7103677],[-74.3499557,39.7112594],[-74.3502039,39.7114126],[-74.3559124,39.7149358],[-74.3567545,39.7154553],[-74.3576013,39.7159779],[-74.3580273,39.7162407],[-74.3582382,39.7163708],[-74.3666477,39.7316205],[-74.3753532,39.7471443],[-74.3756,39.7476003],[-74.3756392,39.747673],[-74.3761205,39.7485624],[-74.3763919,39.7490638],[-74.3769059,39.7500138],[-74.3897096,39.7732909],[-74.3903741,39.7744986],[-74.3627539,39.7678809],[-74.33038,39.7599249],[-74.314513,39.7560707],[-74.2950579,39.7512993],[-74.2876004,39.7494998],[-74.267751,39.744651],[-74.2589489,39.7425147],[-74.2560626,39.7418916],[-74.2484494,39.737182],[-74.2383297,39.7312761],[-74.2381279,39.7311824],[-74.224407,39.7229615],[-74.211289,39.716184],[-74.2084177,39.7135898]]]}}
